[{"OBJECT_NAME":"TRANSPORTER-16 OBJECT Q","OBJECT_ID":"2026-067Q","EPOCH":"2026-04-20T20:33:32.151168","MEAN_MOTION":15.18273973,"ECCENTRICITY":0.0002161,"INCLINATION":97.4469,"RA_OF_ASC_NODE":70.1772,"ARG_OF_PERICENTER":104.5895,"MEAN_ANOMALY":255.5579,"EPHEMERIS_TYPE":0,"CLASSIFICATION_TYPE":"U","NORAD_CAT_ID":68430,"ELEMENT_SET_NO":999,"REV_AT_EPOCH":324,"BSTAR":0.00027353193,"MEAN_MOTION_DOT":5.539e-5,"MEAN_MOTION_DDOT":0},{"OBJECT_NAME":"DISCO-2","OBJECT_ID":"2026-067R","EPOCH":"2026-04-20T20:34:57.789984","MEAN_MOTION":15.18209162,"ECCENTRICITY":0.00027067,"INCLINATION":97.4569,"RA_OF_ASC_NODE":70.2023,"ARG_OF_PERICENTER":145.0119,"MEAN_ANOMALY":215.1293,"EPHEMERIS_TYPE":0,"CLASSIFICATION_TYPE":"U","NORAD_CAT_ID":68431,"ELEMENT_SET_NO":999,"REV_AT_EPOCH":324,"BSTAR":0.00024177417,"MEAN_MOTION_DOT":4.878e-5,"MEAN_MOTION_DDOT":0},{"OBJECT_NAME":"TRANSPORTER-16 OBJECT S","OBJECT_ID":"2026-067S","EPOCH":"2026-04-20T20:39:27.305280","MEAN_MOTION":15.1794857,"ECCENTRICITY":0.00017627,"INCLINATION":97.4523,"RA_OF_ASC_NODE":70.1875,"ARG_OF_PERICENTER":168.2524,"MEAN_ANOMALY":191.8751,"EPHEMERIS_TYPE":0,"CLASSIFICATION_TYPE":"U","NORAD_CAT_ID":68432,"ELEMENT_SET_NO":999,"REV_AT_EPOCH":324,"BSTAR":0.00022784227,"MEAN_MOTION_DOT":4.559e-5,"MEAN_MOTION_DDOT":0},{"OBJECT_NAME":"T.MICROSAT-2","OBJECT_ID":"2026-067T","EPOCH":"2026-04-20T19:26:36.712032","MEAN_MOTION":15.16840127,"ECCENTRICITY":0.00038223,"INCLINATION":97.4538,"RA_OF_ASC_NODE":70.1051,"ARG_OF_PERICENTER":257.7956,"MEAN_ANOMALY":102.2849,"EPHEMERIS_TYPE":0,"CLASSIFICATION_TYPE":"U","NORAD_CAT_ID":68433,"ELEMENT_SET_NO":999,"REV_AT_EPOCH":323,"BSTAR":0.0002085255,"MEAN_MOTION_DOT":4.035e-5,"MEAN_MOTION_DDOT":0},{"OBJECT_NAME":"TRANSPORTER-16 OBJECT U","OBJECT_ID":"2026-067U","EPOCH":"2026-04-20T20:33:57.496608","MEAN_MOTION":15.18190151,"ECCENTRICITY":0.0002682,"INCLINATION":97.4546,"RA_OF_ASC_NODE":70.197,"ARG_OF_PERICENTER":128.2951,"MEAN_ANOMALY":231.8524,"EPHEMERIS_TYPE":0,"CLASSIFICATION_TYPE":"U","NORAD_CAT_ID":68434,"ELEMENT_SET_NO":999,"REV_AT_EPOCH":324,"BSTAR":0.00016543157,"MEAN_MOTION_DOT":3.314e-5,"MEAN_MOTION_DDOT":0},{"OBJECT_NAME":"ION SCV-019 (ASTOUNDING ALEXANDRA)","OBJECT_ID":"2026-067V","EPOCH":"2026-04-20T20:44:49.891776","MEAN_MOTION":15.17634746,"ECCENTRICITY":0.00010859,"INCLINATION":97.4514,"RA_OF_ASC_NODE":70.1798,"ARG_OF_PERICENTER":204.4326,"MEAN_ANOMALY":155.6856,"EPHEMERIS_TYPE":0,"CLASSIFICATION_TYPE":"U","NORAD_CAT_ID":68435,"ELEMENT_SET_NO":999,"REV_AT_EPOCH":324,"BSTAR":0.00012424903,"MEAN_MOTION_DOT":2.433e-5,"MEAN_MOTION_DDOT":0},{"OBJECT_NAME":"HAWK-14B","OBJECT_ID":"2026-067W","EPOCH":"2026-04-21T01:31:20.301888","MEAN_MOTION":15.1762376,"ECCENTRICITY":0.00010984,"INCLINATION":97.4512,"RA_OF_ASC_NODE":70.3725,"ARG_OF_PERICENTER":205.4667,"MEAN_ANOMALY":154.6512,"EPHEMERIS_TYPE":0,"CLASSIFICATION_TYPE":"U","NORAD_CAT_ID":68436,"ELEMENT_SET_NO":999,"REV_AT_EPOCH":327,"BSTAR":0.0001526899,"MEAN_MOTION_DOT":3.004e-5,"MEAN_MOTION_DDOT":0},{"OBJECT_NAME":"TRANSPORTER-16 OBJECT X","OBJECT_ID":"2026-067X","EPOCH":"2026-04-20T17:29:53.526336","MEAN_MOTION":15.18073408,"ECCENTRICITY":0.00011372,"INCLINATION":97.4476,"RA_OF_ASC_NODE":70.0411,"ARG_OF_PERICENTER":176.3453,"MEAN_ANOMALY":183.779,"EPHEMERIS_TYPE":0,"CLASSIFICATION_TYPE":"U","NORAD_CAT_ID":68437,"ELEMENT_SET_NO":999,"REV_AT_EPOCH":322,"BSTAR":0.00048458149,"MEAN_MOTION_DOT":9.812e-5,"MEAN_MOTION_DDOT":0},{"OBJECT_NAME":"TRANSPORTER-16 OBJECT Y","OBJECT_ID":"2026-067Y","EPOCH":"2026-04-20T20:39:44.936064","MEAN_MOTION":15.1814106,"ECCENTRICITY":0.00014612,"INCLINATION":97.4493,"RA_OF_ASC_NODE":70.1768,"ARG_OF_PERICENTER":197.2577,"MEAN_ANOMALY":162.8607,"EPHEMERIS_TYPE":0,"CLASSIFICATION_TYPE":"U","NORAD_CAT_ID":68438,"ELEMENT_SET_NO":999,"REV_AT_EPOCH":324,"BSTAR":0.00067213632,"MEAN_MOTION_DOT":0.00013669,"MEAN_MOTION_DDOT":0},{"OBJECT_NAME":"TRANSPORTER-16 OBJECT Z","OBJECT_ID":"2026-067Z","EPOCH":"2026-04-20T20:43:22.671840","MEAN_MOTION":15.17917806,"ECCENTRICITY":5.086e-5,"INCLINATION":97.4488,"RA_OF_ASC_NODE":70.1724,"ARG_OF_PERICENTER":198.4117,"MEAN_ANOMALY":161.7099,"EPHEMERIS_TYPE":0,"CLASSIFICATION_TYPE":"U","NORAD_CAT_ID":68439,"ELEMENT_SET_NO":999,"REV_AT_EPOCH":324,"BSTAR":0.00058774758,"MEAN_MOTION_DOT":0.00011865,"MEAN_MOTION_DDOT":0},{"OBJECT_NAME":"TRANSPORTER-16 OBJECT AA","OBJECT_ID":"2026-067AA","EPOCH":"2026-04-20T20:42:06.352128","MEAN_MOTION":15.18058112,"ECCENTRICITY":6.251e-5,"INCLINATION":97.4487,"RA_OF_ASC_NODE":70.173,"ARG_OF_PERICENTER":194.6185,"MEAN_ANOMALY":165.5031,"EPHEMERIS_TYPE":0,"CLASSIFICATION_TYPE":"U","NORAD_CAT_ID":68440,"ELEMENT_SET_NO":999,"REV_AT_EPOCH":324,"BSTAR":0.00079860875,"MEAN_MOTION_DOT":0.00016221,"MEAN_MOTION_DDOT":0},{"OBJECT_NAME":"HAWK-14C","OBJECT_ID":"2026-067AB","EPOCH":"2026-04-20T20:47:05.221824","MEAN_MOTION":15.17769065,"ECCENTRICITY":7.941e-5,"INCLINATION":97.4456,"RA_OF_ASC_NODE":70.1575,"ARG_OF_PERICENTER":290.8422,"MEAN_ANOMALY":69.2727,"EPHEMERIS_TYPE":0,"CLASSIFICATION_TYPE":"U","NORAD_CAT_ID":68441,"ELEMENT_SET_NO":999,"REV_AT_EPOCH":324,"BSTAR":0.00015199682,"MEAN_MOTION_DOT":3.003e-5,"MEAN_MOTION_DDOT":0},{"OBJECT_NAME":"TRANSPORTER-16 OBJECT AC","OBJECT_ID":"2026-067AC","EPOCH":"2026-04-20T19:20:32.498016","MEAN_MOTION":15.1715147,"ECCENTRICITY":0.00024702,"INCLINATION":97.4506,"RA_OF_ASC_NODE":70.1021,"ARG_OF_PERICENTER":268.0716,"MEAN_ANOMALY":92.0235,"EPHEMERIS_TYPE":0,"CLASSIFICATION_TYPE":"U","NORAD_CAT_ID":68442,"ELEMENT_SET_NO":999,"REV_AT_EPOCH":323,"BSTAR":0.00022363632,"MEAN_MOTION_DOT":4.371e-5,"MEAN_MOTION_DDOT":0},{"OBJECT_NAME":"TRANSPORTER-16 OBJECT AD","OBJECT_ID":"2026-067AD","EPOCH":"2026-04-20T16:11:47.065056","MEAN_MOTION":15.17080112,"ECCENTRICITY":0.0002685,"INCLINATION":97.4514,"RA_OF_ASC_NODE":69.9737,"ARG_OF_PERICENTER":273.5042,"MEAN_ANOMALY":86.5885,"EPHEMERIS_TYPE":0,"CLASSIFICATION_TYPE":"U","NORAD_CAT_ID":68443,"ELEMENT_SET_NO":999,"REV_AT_EPOCH":321,"BSTAR":0.00019680796,"MEAN_MOTION_DOT":3.831e-5,"MEAN_MOTION_DDOT":0},{"OBJECT_NAME":"TRANSPORTER-16 OBJECT AE","OBJECT_ID":"2026-067AE","EPOCH":"2026-04-20T20:34:33.839040","MEAN_MOTION":15.18194227,"ECCENTRICITY":0.00024112,"INCLINATION":97.4539,"RA_OF_ASC_NODE":70.1948,"ARG_OF_PERICENTER":132.5413,"MEAN_ANOMALY":227.6025,"EPHEMERIS_TYPE":0,"CLASSIFICATION_TYPE":"U","NORAD_CAT_ID":68444,"ELEMENT_SET_NO":999,"REV_AT_EPOCH":324,"BSTAR":0.0002320038,"MEAN_MOTION_DOT":4.676e-5,"MEAN_MOTION_DDOT":0},{"OBJECT_NAME":"TRANSPORTER-16 OBJECT AF","OBJECT_ID":"2026-067AF","EPOCH":"2026-04-20T19:24:42.568992","MEAN_MOTION":15.16920525,"ECCENTRICITY":0.00031996,"INCLINATION":97.4484,"RA_OF_ASC_NODE":70.0923,"ARG_OF_PERICENTER":282.3867,"MEAN_ANOMALY":77.7009,"EPHEMERIS_TYPE":0,"CLASSIFICATION_TYPE":"U","NORAD_CAT_ID":68445,"ELEMENT_SET_NO":999,"REV_AT_EPOCH":323,"BSTAR":0.00017081506,"MEAN_MOTION_DOT":3.301e-5,"MEAN_MOTION_DDOT":0}]
